{
  "type": "FeatureCollection",
  "features": [
    {
      "type": "Feature",
      "properties": {
        "norad_id": 33835,
        "name": "COSMOS 2251 DEB",
        "group": "cosmos-2251-debris",
        "lat": 21.262419323354298,
        "lon": -99.92811532397694,
        "alt_km": 649.2218632002032,
        "timestamp": "2025-12-20T09:36:02.041840+00:00",
        "meta_object_name": "COSMOS 2251 DEB",
        "meta_object_id": "1993-036CC",
        "meta_epoch": "2025-12-19T06:45:22.768128",
        "meta_mean_motion": 14.62311056,
        "meta_eccentricity": 0.0054163,
        "meta_inclination": 74.0577,
        "meta_ra_of_asc_node": 88.5967,
        "meta_arg_of_pericenter": 140.2463,
        "meta_mean_anomaly": 251.5012,
        "meta_ephemeris_type": 0,
        "meta_classification_type": "U",
        "meta_norad_cat_id": 33835,
        "meta_element_set_no": 999,
        "meta_rev_at_epoch": 88885,
        "meta_bstar": 0.00063119,
        "meta_mean_motion_dot": 3.225e-05,
        "meta_mean_motion_ddot": 0,
        "tle_line1": "1 33835U 93036CC  25353.28151352  .00003225  00000+0  63119-3 0  9992",
        "tle_line2": "2 33835  74.0577  88.5967 0054163 140.2463 251.5012 14.62311056888858"
      },
      "geometry": {
        "type": "Point",
        "coordinates": [
          -99.92811532397694,
          21.262419323354298
        ]
      }
    },
    {
      "type": "Feature",
      "properties": {
        "norad_id": 33836,
        "name": "COSMOS 2251 DEB",
        "group": "cosmos-2251-debris",
        "lat": -55.898927169548664,
        "lon": -141.24528324196268,
        "alt_km": 651.0890470671911,
        "timestamp": "2025-12-20T09:36:02.041850+00:00",
        "meta_object_name": "COSMOS 2251 DEB",
        "meta_object_id": "1993-036CD",
        "meta_epoch": "2025-12-20T04:04:27.302016",
        "meta_mean_motion": 14.79738442,
        "meta_eccentricity": 0.00227,
        "meta_inclination": 73.997,
        "meta_ra_of_asc_node": 244.2883,
        "meta_arg_of_pericenter": 94.6468,
        "meta_mean_anomaly": 59.9368,
        "meta_ephemeris_type": 0,
        "meta_classification_type": "U",
        "meta_norad_cat_id": 33836,
        "meta_element_set_no": 999,
        "meta_rev_at_epoch": 64198,
        "meta_bstar": 0.00071192,
        "meta_mean_motion_dot": 5.345e-05,
        "meta_mean_motion_ddot": 0,
        "tle_line1": "1 33836U 93036CD  25354.16976044  .00005345  00000+0  71192-3 0  9999",
        "tle_line2": "2 33836  73.9970 244.2883 0022700  94.6468  59.9368 14.79738442641986"
      },
      "geometry": {
        "type": "Point",
        "coordinates": [
          -141.24528324196268,
          -55.898927169548664
        ]
      }
    },
    {
      "type": "Feature",
      "properties": {
        "norad_id": 33837,
        "name": "COSMOS 2251 DEB",
        "group": "cosmos-2251-debris",
        "lat": -20.1363543380188,
        "lon": -132.7895521878884,
        "alt_km": 715.6261815869648,
        "timestamp": "2025-12-20T09:36:02.041861+00:00",
        "meta_object_name": "COSMOS 2251 DEB",
        "meta_object_id": "1993-036CE",
        "meta_epoch": "2025-12-20T03:42:32.465088",
        "meta_mean_motion": 14.50715785,
        "meta_eccentricity": 0.0035905,
        "meta_inclination": 74.0125,
        "meta_ra_of_asc_node": 41.6382,
        "meta_arg_of_pericenter": 262.1688,
        "meta_mean_anomaly": 97.5396,
        "meta_ephemeris_type": 0,
        "meta_classification_type": "U",
        "meta_norad_cat_id": 33837,
        "meta_element_set_no": 999,
        "meta_rev_at_epoch": 88903,
        "meta_bstar": 0.00017345,
        "meta_mean_motion_dot": 6.59e-06,
        "meta_mean_motion_ddot": 0,
        "tle_line1": "1 33837U 93036CE  25354.15454242  .00000659  00000+0  17345-3 0  9993",
        "tle_line2": "2 33837  74.0125  41.6382 0035905 262.1688  97.5396 14.50715785889034"
      },
      "geometry": {
        "type": "Point",
        "coordinates": [
          -132.7895521878884,
          -20.1363543380188
        ]
      }
    },
    {
      "type": "Feature",
      "properties": {
        "norad_id": 33838,
        "name": "COSMOS 2251 DEB",
        "group": "cosmos-2251-debris",
        "lat": 9.177671158376226,
        "lon": 138.11932801637326,
        "alt_km": 740.0463364841216,
        "timestamp": "2025-12-20T09:36:02.041872+00:00",
        "meta_object_name": "COSMOS 2251 DEB",
        "meta_object_id": "1993-036CF",
        "meta_epoch": "2025-12-18T20:00:12.340224",
        "meta_mean_motion": 14.48380976,
        "meta_eccentricity": 0.00275019,
        "meta_inclination": 74.0361,
        "meta_ra_of_asc_node": 138.4014,
        "meta_arg_of_pericenter": 259.447,
        "meta_mean_anomaly": 224.9911,
        "meta_ephemeris_type": 0,
        "meta_classification_type": "U",
        "meta_norad_cat_id": 33838,
        "meta_element_set_no": 999,
        "meta_rev_at_epoch": 88657,
        "meta_bstar": 0.00031263295,
        "meta_mean_motion_dot": 1.148e-05,
        "meta_mean_motion_ddot": 0,
        "tle_line1": "1 33838U 93036CF  25352.83347616  .00001148  00000+0  31263-3 0  9992",
        "tle_line2": "2 33838  74.0361 138.4014 0027501 259.4470 224.9911 14.48380976886577"
      },
      "geometry": {
        "type": "Point",
        "coordinates": [
          138.11932801637326,
          9.177671158376226
        ]
      }
    },
    {
      "type": "Feature",
      "properties": {
        "norad_id": 33839,
        "name": "COSMOS 2251 DEB",
        "group": "cosmos-2251-debris",
        "lat": 18.267114259602874,
        "lon": -162.8180700003311,
        "alt_km": 664.918425228364,
        "timestamp": "2025-12-20T09:36:02.041882+00:00",
        "meta_object_name": "COSMOS 2251 DEB",
        "meta_object_id": "1993-036CG",
        "meta_epoch": "2025-12-20T00:22:34.192128",
        "meta_mean_motion": 14.64436773,
        "meta_eccentricity": 0.0085291,
        "meta_inclination": 74.0376,
        "meta_ra_of_asc_node": 192.499,
        "meta_arg_of_pericenter": 302.9029,
        "meta_mean_anomaly": 209.8341,
        "meta_ephemeris_type": 0,
        "meta_classification_type": "U",
        "meta_norad_cat_id": 33839,
        "meta_element_set_no": 999,
        "meta_rev_at_epoch": 89686,
        "meta_bstar": 0.00014134,
        "meta_mean_motion_dot": 7.54e-06,
        "meta_mean_motion_ddot": 0,
        "tle_line1": "1 33839U 93036CG  25354.01567352  .00000754  00000+0  14134-3 0  9996",
        "tle_line2": "2 33839  74.0376 192.4990 0085291 302.9029 209.8341 14.64436773896868"
      },
      "geometry": {
        "type": "Point",
        "coordinates": [
          -162.8180700003311,
          18.267114259602874
        ]
      }
    },
    {
      "type": "Feature",
      "properties": {
        "norad_id": 33841,
        "name": "COSMOS 2251 DEB",
        "group": "cosmos-2251-debris",
        "lat": 72.52391121731715,
        "lon": 18.558953496360502,
        "alt_km": 764.3239106112424,
        "timestamp": "2025-12-20T09:36:02.041892+00:00",
        "meta_object_name": "COSMOS 2251 DEB",
        "meta_object_id": "1993-036CJ",
        "meta_epoch": "2025-12-20T04:50:53.448000",
        "meta_mean_motion": 14.3787057,
        "meta_eccentricity": 0.0020848,
        "meta_inclination": 74.0378,
        "meta_ra_of_asc_node": 264.3028,
        "meta_arg_of_pericenter": 343.2857,
        "meta_mean_anomaly": 169.0858,
        "meta_ephemeris_type": 0,
        "meta_classification_type": "U",
        "meta_norad_cat_id": 33841,
        "meta_element_set_no": 999,
        "meta_rev_at_epoch": 88221,
        "meta_bstar": 0.00015733,
        "meta_mean_motion_dot": 4.49e-06,
        "meta_mean_motion_ddot": 0,
        "tle_line1": "1 33841U 93036CJ  25354.20200750  .00000449  00000+0  15733-3 0  9993",
        "tle_line2": "2 33841  74.0378 264.3028 0020848 343.2857 169.0858 14.37870570882219"
      },
      "geometry": {
        "type": "Point",
        "coordinates": [
          18.558953496360502,
          72.52391121731715
        ]
      }
    },
    {
      "type": "Feature",
      "properties": {
        "norad_id": 33842,
        "name": "COSMOS 2251 DEB",
        "group": "cosmos-2251-debris",
        "lat": 51.8400497783932,
        "lon": 4.0636163532776,
        "alt_km": 778.0368407645956,
        "timestamp": "2025-12-20T09:36:02.041903+00:00",
        "meta_object_name": "COSMOS 2251 DEB",
        "meta_object_id": "1993-036CK",
        "meta_epoch": "2025-12-20T00:42:01.120896",
        "meta_mean_motion": 14.42710574,
        "meta_eccentricity": 0.0047481,
        "meta_inclination": 74.0319,
        "meta_ra_of_asc_node": 206.1214,
        "meta_arg_of_pericenter": 311.9968,
        "meta_mean_anomaly": 47.7149,
        "meta_ephemeris_type": 0,
        "meta_classification_type": "U",
        "meta_norad_cat_id": 33842,
        "meta_element_set_no": 999,
        "meta_rev_at_epoch": 88442,
        "meta_bstar": 0.00019231,
        "meta_mean_motion_dot": 6.21e-06,
        "meta_mean_motion_ddot": 0,
        "tle_line1": "1 33842U 93036CK  25354.02917964  .00000621  00000+0  19231-3 0  9995",
        "tle_line2": "2 33842  74.0319 206.1214 0047481 311.9968  47.7149 14.42710574884426"
      },
      "geometry": {
        "type": "Point",
        "coordinates": [
          4.0636163532776,
          51.8400497783932
        ]
      }
    }
  ]
}